{
    "links": {
        "self": "http://www.neowsapp.com/rest/v1/neo/3771611?api_key=iIulBulltgU6a56xZRHN4H3l9WmuAYTsLGpBGhQ2"
    },
    "id": "3771611",
    "neo_reference_id": "3771611",
    "name": "(2017 FC1)",
    "designation": "2017 FC1",
    "nasa_jpl_url": "http://ssd.jpl.nasa.gov/sbdb.cgi?sstr=3771611",
    "absolute_magnitude_h": 26.0,
    "estimated_diameter": {
        "kilometers": {
            "estimated_diameter_min": 0.0167708462,
            "estimated_diameter_max": 0.0375007522
        },
        "meters": {
            "estimated_diameter_min": 16.7708462163,
            "estimated_diameter_max": 37.5007521798
        },
        "miles": {
            "estimated_diameter_min": 0.0104209175,
            "estimated_diameter_max": 0.0233018799
        },
        "feet": {
            "estimated_diameter_min": 55.0224631002,
            "estimated_diameter_max": 123.0339677816
        }
    },
    "is_potentially_hazardous_asteroid": false,
    "close_approach_data": [
        {
            "close_approach_date": "2010-09-14",
            "close_approach_date_full": "2010-Sep-14 00:42",
            "epoch_date_close_approach": 1284424920000,
            "relative_velocity": {
                "kilometers_per_second": "4.8324998222",
                "kilometers_per_hour": "17396.9993599881",
                "miles_per_hour": "10809.8188523215"
            },
            "miss_distance": {
                "astronomical": "0.711389141",
                "lunar": "276.730375849",
                "kilometers": "106422300.23472967",
                "miles": "66127750.981302646"
            },
            "orbiting_body": "Juptr"
        },
        {
            "close_approach_date": "2017-03-22",
            "close_approach_date_full": "2017-Mar-22 20:45",
            "epoch_date_close_approach": 1490215500000,
            "relative_velocity": {
                "kilometers_per_second": "7.3581894267",
                "kilometers_per_hour": "26489.4819360695",
                "miles_per_hour": "16459.5339285538"
            },
            "miss_distance": {
                "astronomical": "0.0401120287",
                "lunar": "15.6035791643",
                "kilometers": "6000674.054898869",
                "miles": "3728645.9581036322"
            },
            "orbiting_body": "Earth"
        },
        {
            "close_approach_date": "2058-03-24",
            "close_approach_date_full": "2058-Mar-24 08:50",
            "epoch_date_close_approach": 2784185400000,
            "relative_velocity": {
                "kilometers_per_second": "4.833754051",
                "kilometers_per_hour": "17401.5145836036",
                "miles_per_hour": "10812.6244366842"
            },
            "miss_distance": {
                "astronomical": "0.7189203181",
                "lunar": "279.6600037409",
                "kilometers": "107548948.287482447",
                "miles": "66827817.6187618886"
            },
            "orbiting_body": "Juptr"
        }
    ],
    "orbital_data": {
        "orbit_id": "17",
        "orbit_determination_date": "2019-04-18 07:27:26",
        "first_observation_date": "2017-03-14",
        "last_observation_date": "2017-04-01",
        "data_arc_in_days": 18,
        "observations_used": 91,
        "orbit_uncertainty": "7",
        "minimum_orbit_intersection": ".0417147",
        "jupiter_tisserand_invariant": "3.101",
        "epoch_osculation": "2459000.5",
        "eccentricity": ".6071680133409922",
        "semi_major_axis": "2.64112873187967",
        "inclination": "2.37705962128731",
        "ascending_node_longitude": "175.0475088747722",
        "orbital_period": "1567.771558633272",
        "perihelion_distance": "1.037519846766477",
        "perihelion_argument": "2.865961164997387",
        "aphelion_distance": "4.244737616992864",
        "perihelion_time": "2459399.025543151889",
        "mean_anomaly": "268.4884562775513",
        "mean_motion": ".2296252907622813",
        "equinox": "J2000",
        "orbit_class": {
            "orbit_class_type": "AMO",
            "orbit_class_description": "Near-Earth asteroid orbits similar to that of 1221 Amor",
            "orbit_class_range": "1.017 AU < q (perihelion) < 1.3 AU"
        }
    },
    "is_sentry_object": false
}